{
  "norad_id": 59339,
  "name": "STARLINK-31473",
  "history": [
    {
      "epoch": "2026-03-28T16:06:49.849920Z",
      "apogee_km": 483.7022906830689,
      "perigee_km": 482.43351667228126,
      "latitude_deg": -2.4148800353619316e-05,
      "longitude_deg": 11.94435822200282,
      "height_km": 482.70198675095975,
      "semi_major_axis_km": 6861.204903677674,
      "eccentricity": 9.246e-05,
      "inclination_deg": 43.0021,
      "raan_deg": 79.7406,
      "arg_perigee_deg": 282.9759,
      "mean_anomaly_deg": 77.0989,
      "mean_motion_rev_day": 15.27573719
    }
  ]
}